[{"OBJECT_NAME":"YAOGAN-21","OBJECT_ID":"2014-053A","EPOCH":"2026-03-09T23:50:42.268992","MEAN_MOTION":15.2493211,"ECCENTRICITY":0.00100966,"INCLINATION":97.1617,"RA_OF_ASC_NODE":113.5215,"ARG_OF_PERICENTER":86.0219,"MEAN_ANOMALY":274.2173,"EPHEMERIS_TYPE":0,"CLASSIFICATION_TYPE":"U","NORAD_CAT_ID":40143,"ELEMENT_SET_NO":999,"REV_AT_EPOCH":63983,"BSTAR":0.00033036554,"MEAN_MOTION_DOT":8.172e-5,"MEAN_MOTION_DDOT":0},{"OBJECT_NAME":"ZHANGHENG 1-01 (CSES-1)","OBJECT_ID":"2018-015C","EPOCH":"2026-03-09T23:37:11.256384","MEAN_MOTION":15.21039097,"ECCENTRICITY":0.00148927,"INCLINATION":97.6761,"RA_OF_ASC_NODE":232.7218,"ARG_OF_PERICENTER":243.5493,"MEAN_ANOMALY":116.4215,"EPHEMERIS_TYPE":0,"CLASSIFICATION_TYPE":"U","NORAD_CAT_ID":43194,"ELEMENT_SET_NO":999,"REV_AT_EPOCH":44956,"BSTAR":0.0005179147,"MEAN_MOTION_DOT":0.00011466,"MEAN_MOTION_DDOT":0}]
